[{"OBJECT_NAME":"CELESTIS-02 & TAURUS R\/B","OBJECT_ID":"1998-007D","EPOCH":"2026-03-09T22:56:59.337312","MEAN_MOTION":14.22453237,"ECCENTRICITY":0.00634235,"INCLINATION":108.0072,"RA_OF_ASC_NODE":131.996,"ARG_OF_PERICENTER":301.5817,"MEAN_ANOMALY":134.6877,"EPHEMERIS_TYPE":0,"CLASSIFICATION_TYPE":"U","NORAD_CAT_ID":25160,"ELEMENT_SET_NO":999,"REV_AT_EPOCH":45640,"BSTAR":6.4821117e-5,"MEAN_MOTION_DOT":1.8e-7,"MEAN_MOTION_DDOT":0},{"OBJECT_NAME":"COSMOS 397 DEB","OBJECT_ID":"1971-015DS","EPOCH":"2026-03-09T01:15:50.331168","MEAN_MOTION":13.82455398,"ECCENTRICITY":0.01605141,"INCLINATION":65.7112,"RA_OF_ASC_NODE":284.5979,"ARG_OF_PERICENTER":130.2688,"MEAN_ANOMALY":308.3536,"EPHEMERIS_TYPE":0,"CLASSIFICATION_TYPE":"U","NORAD_CAT_ID":19367,"ELEMENT_SET_NO":999,"REV_AT_EPOCH":90895,"BSTAR":0.00035927164,"MEAN_MOTION_DOT":3.47e-6,"MEAN_MOTION_DDOT":0}]
